OBJECT_NAME,OBJECT_ID,EPOCH,MEAN_MOTION,ECCENTRICITY,INCLINATION,RA_OF_ASC_NODE,ARG_OF_PERICENTER,MEAN_ANOMALY,EPHEMERIS_TYPE,CLASSIFICATION_TYPE,NORAD_CAT_ID,ELEMENT_SET_NO,REV_AT_EPOCH,BSTAR,MEAN_MOTION_DOT,MEAN_MOTION_DDOT
GLOBAL-19,2023-041B,2026-07-12T02:16:29.825760,15.38628097,.0009182,42.0022,56.5737,198.0441,162.0074,0,U,55982,999,18576,.22913E-3,.8692E-4,0
ION SCV-010,2023-054Q,2026-07-12T03:19:14.071584,15.26407546,.0014508,97.3753,82.3208,113.8478,246.4283,0,U,56192,999,18000,.11638E-3,.2964E-4,0
TELEOS-2,2023-057C,2026-07-12T03:36:25.989120,14.96411808,.0000911,9.9893,22.4141,271.3261,88.6848,0,U,56310,999,17654,.22855E-3,.3351E-4,0
SNIPE 4,2023-072B,2026-07-12T04:25:32.978208,15.43310509,.0004507,97.5234,39.9976,218.0268,142.0662,0,U,56744,999,17396,.30706E-3,.13595E-3,0
SNIPE 2,2023-072C,2026-07-12T05:12:01.499328,15.48115338,.0002989,97.5222,43.2540,248.4536,111.6395,0,U,56745,999,17411,.33249E-3,.17367E-3,0
2023-072G,2023-072G,2026-07-12T05:17:18.080160,15.52005830,.0002106,97.4879,42.0913,217.0493,143.0614,0,U,56749,999,17434,.33981E-3,.20371E-3,0
GEISAT PRECURSOR,2023-084C,2026-07-12T04:32:12.054624,15.34982676,.000426,97.6245,334.9750,243.6521,116.4284,0,U,56934,999,17136,.13194E-3,.4392E-4,0
BLACKJACK ACES-3,2023-084U,2026-07-11T22:41:46.981824,15.18706198,.0000696,97.6234,328.3318,274.4329,85.6825,0,U,56950,999,17092,.14674E-3,.2974E-4,0
BLACKJACK ACES-2,2023-084Z,2026-07-11T22:50:22.121088,15.18710567,.0001394,97.6231,328.4219,140.3131,219.8205,0,U,56955,999,17093,.1833E-3,.3733E-4,0
BLACKJACK ACES-1,2023-084AA,2026-07-12T00:07:23.708064,15.18758328,.0001789,97.6220,328.2476,122.0843,238.0565,0,U,56956,999,12066,.20081E-3,.4102E-4,0
ION SCV-011,2023-084AB,2026-07-12T01:35:31.653312,15.29077841,.0006102,98.1377,22.6553,318.4243,41.6530,0,U,56957,999,16961,.11686E-3,.3211E-4,0
GHOST-3,2023-084AC,2026-07-11T20:26:49.702560,15.48706956,.00065976,97.6228,342.7655,195.7404,164.3642,0,U,56958,999,17183,.21567786E-3,.11463E-3,0
AFR-1,2023-084AJ,2026-07-12T04:07:49.355328,15.28760227,.0009107,97.6300,330.4721,247.0470,112.9809,0,U,56964,999,17104,.99146E-4,.2694E-4,0
METEOR-M2 3,2023-091A,2026-07-12T04:22:12.705600,14.24048740,.0005146,98.6070,247.6473,97.0205,263.1560,0,U,57166,999,15807,.73993E-5,-.26E-6,0
UMKA 1 (RS40S),2023-091G,2026-07-12T02:15:27.635040,15.21100202,.0013332,97.5041,251.6977,39.7413,320.4797,0,U,57172,999,16779,.1683E-3,.368E-4,0
2023-091H,2023-091H,2026-07-12T04:25:12.485856,15.29174483,.0009907,97.5042,256.5853,35.2655,324.9239,0,U,57173,999,16812,.24747E-3,.6939E-4,0
2023-091J,2023-091J,2026-07-12T04:06:12.868992,15.14098579,.0014591,97.5045,245.9116,65.7795,294.4960,0,U,57174,999,16741,.12409E-3,.2198E-4,0
CUBEBEL 2 (EU11S),2023-091K,2026-07-12T04:13:17.556096,15.29776788,.0009873,97.5044,256.6242,36.6290,323.5624,0,U,57175,999,16812,.27363E-3,.7825E-4,0
SITRO-AIS 5 (KATYS),2023-091L,2026-07-12T04:31:18.001056,15.30022007,.0010974,97.5054,257.3329,22.9722,337.2006,0,U,57176,999,16816,.2595E-3,.7476E-4,0
ZORKIY-2M 1,2023-091M,2026-07-12T05:02:49.711776,15.21225510,.0013688,97.5083,252.0989,36.3092,323.9070,0,U,57177,999,16780,.17137E-3,.3763E-4,0
CUBESX-HSE 3 (RS42S),2023-091N,2026-07-12T03:10:29.991648,15.31836533,.000999,97.5086,259.0430,13.0447,347.1051,0,U,57178,999,16824,.27134E-3,.8273E-4,0
MONITOR-3 (RS58S),2023-091Q,2026-07-12T05:06:27.706752,15.28335579,.0011323,97.5077,256.8485,20.1738,339.9947,0,U,57180,999,16811,.21678E-3,.5915E-4,0
MONITOR-4 (RS57S),2023-091S,2026-07-12T04:34:17.929056,15.28421623,.0011327,97.5071,256.7986,20.6117,339.5577,0,U,57182,999,16811,.22351E-3,.6118E-4,0
MONITOR-2 (RS39S),2023-091U,2026-07-12T03:31:43.119840,15.19137320,.0011681,97.5062,251.2698,33.9590,326.2390,0,U,57184,999,16774,.13362E-3,.2742E-4,0
SVYATOBOR 1 (RS60S),2023-091X,2026-07-12T03:50:37.805856,15.27031809,.0009052,97.5083,257.1200,15.2272,344.9237,0,U,57187,999,16812,.20191E-3,.5285E-4,0
HORS 1,2023-091Y,2026-07-12T05:01:32.058048,15.27149390,.0008515,97.5061,256.9288,15.4979,344.6519,0,U,57188,999,16813,.20325E-3,.5339E-4,0
VIZARD-METEO (RS38S),2023-091Z,2026-07-12T03:45:56.668032,15.36812410,.0005926,97.5086,263.1542,352.2501,7.8650,0,U,57189,999,16852,.30032E-3,.10729E-3,0
SITRO-AIS 6 (CHIRKIN),2023-091AC,2026-07-12T03:50:44.527776,15.26402165,.0011497,97.5061,256.2894,26.9592,333.2242,0,U,57192,999,16809,.22296E-3,.5738E-4,0
SITRO-AIS 8 (ANOKHIN),2023-091AD,2026-07-12T03:51:40.942656,15.32805109,.0009841,97.5051,258.9975,18.9821,341.1786,0,U,57193,999,16827,.26751E-3,.8407E-4,0
SITRO-AIS 7 (FARTUSHNIY),2023-091AE,2026-07-12T04:02:45.730176,15.26077550,.0011456,97.5057,256.1095,28.1035,332.0820,0,U,57194,999,16808,.2165E-3,.5514E-4,0
