GLOBAL-19               
1 55982U 23041B   26193.09478965  .00008692  00000+0  22913-3 0  9992
2 55982  42.0022  56.5737 0009182 198.0441 162.0074 15.38628097185767
ION SCV-010             
1 56192U 23054Q   26193.13835731  .00002964  00000+0  11638-3 0  9991
2 56192  97.3753  82.3208 0014508 113.8478 246.4283 15.26407546180000
TELEOS-2                
1 56310U 23057C   26193.15030080  .00003351  00000+0  22855-3 0  9996
2 56310   9.9893  22.4141 0000911 271.3261  88.6848 14.96411808176549
SNIPE 4                 
1 56744U 23072B   26193.18440947  .00013595  00000+0  30706-3 0  9999
2 56744  97.5234  39.9976 0004507 218.0268 142.0662 15.43310509173962
SNIPE 2                 
1 56745U 23072C   26193.21668402  .00017367  00000+0  33249-3 0  9998
2 56745  97.5222  43.2540 0002989 248.4536 111.6395 15.48115338174113
2023-072G               
1 56749U 23072G   26193.22034815  .00020371  00000+0  33981-3 0  9990
2 56749  97.4879  42.0913 0002106 217.0493 143.0614 15.52005830174348
GEISAT PRECURSOR        
1 56934U 23084C   26193.18902841  .00004392  00000+0  13194-3 0  9996
2 56934  97.6245 334.9750 0004260 243.6521 116.4284 15.34982676171363
BLACKJACK ACES-3        
1 56950U 23084U   26192.94568266  .00002974  00000+0  14674-3 0  9994
2 56950  97.6234 328.3318 0000696 274.4329  85.6825 15.18706198170927
BLACKJACK ACES-2        
1 56955U 23084Z   26192.95164492  .00003733  00000+0  18330-3 0  9990
2 56955  97.6231 328.4219 0001394 140.3131 219.8205 15.18710567170937
BLACKJACK ACES-1        
1 56956U 23084AA  26193.00513551  .00004102  00000+0  20081-3 0  9999
2 56956  97.6220 328.2476 0001789 122.0843 238.0565 15.18758328120668
ION SCV-011             
1 56957U 23084AB  26193.06633858  .00003211  00000+0  11686-3 0  9990
2 56957  98.1377  22.6553 0006102 318.4243  41.6530 15.29077841169612
GHOST-3                 
1 56958U 23084AC  26192.85196415  .00011463  00000+0  21568-3 0  9998
2 56958  97.6228 342.7655 0006597 195.7404 164.3642 15.48706956171835
AFR-1                   
1 56964U 23084AJ  26193.17209902  .00002694  00000+0  99146-4 0  9991
2 56964  97.6300 330.4721 0009107 247.0470 112.9809 15.28760227171041
METEOR-M2 3             
1 57166U 23091A   26193.18209150 -.00000026  00000+0  73993-5 0  9991
2 57166  98.6070 247.6473 0005146  97.0205 263.1560 14.24048740158077
UMKA 1 (RS40S)          
1 57172U 23091G   26193.09406985  .00003680  00000+0  16830-3 0  9996
2 57172  97.5041 251.6977 0013332  39.7413 320.4797 15.21100202167792
2023-091H               
1 57173U 23091H   26193.18417229  .00006939  00000+0  24747-3 0  9996
2 57173  97.5042 256.5853 0009907  35.2655 324.9239 15.29174483168121
2023-091J               
1 57174U 23091J   26193.17098228  .00002198  00000+0  12409-3 0  9995
2 57174  97.5045 245.9116 0014591  65.7795 294.4960 15.14098579167415
CUBEBEL 2 (EU11S)       
1 57175U 23091K   26193.17589764  .00007825  00000+0  27363-3 0  9993
2 57175  97.5044 256.6242 0009873  36.6290 323.5624 15.29776788168129
SITRO-AIS 5 (KATYS)     
1 57176U 23091L   26193.18840279  .00007476  00000+0  25950-3 0  9998
2 57176  97.5054 257.3329 0010974  22.9722 337.2006 15.30022007168167
ZORKIY-2M 1             
1 57177U 23091M   26193.21029759  .00003763  00000+0  17137-3 0  9998
2 57177  97.5083 252.0989 0013688  36.3092 323.9070 15.21225510167805
CUBESX-HSE 3 (RS42S)    
1 57178U 23091N   26193.13229157  .00008273  00000+0  27134-3 0  9993
2 57178  97.5086 259.0430 0009990  13.0447 347.1051 15.31836533168244
MONITOR-3 (RS58S)       
1 57180U 23091Q   26193.21282068  .00005915  00000+0  21678-3 0  9992
2 57180  97.5077 256.8485 0011323  20.1738 339.9947 15.28335579168116
MONITOR-4 (RS57S)       
1 57182U 23091S   26193.19048529  .00006118  00000+0  22351-3 0  9998
2 57182  97.5071 256.7986 0011327  20.6117 339.5577 15.28421623168118
MONITOR-2 (RS39S)       
1 57184U 23091U   26193.14702685  .00002742  00000+0  13362-3 0  9996
2 57184  97.5062 251.2698 0011681  33.9590 326.2390 15.19137320167747
SVYATOBOR 1 (RS60S)     
1 57187U 23091X   26193.16015979  .00005285  00000+0  20191-3 0  9997
2 57187  97.5083 257.1200 0009052  15.2272 344.9237 15.27031809168120
HORS 1                  
1 57188U 23091Y   26193.20939882  .00005339  00000+0  20325-3 0  9990
2 57188  97.5061 256.9288 0008515  15.4979 344.6519 15.27149390168135
VIZARD-METEO (RS38S)    
1 57189U 23091Z   26193.15690588  .00010729  00000+0  30032-3 0  9997
2 57189  97.5086 263.1542 0005926 352.2501   7.8650 15.36812410168529
SITRO-AIS 6 (CHIRKIN)   
1 57192U 23091AC  26193.16023759  .00005738  00000+0  22296-3 0  9999
2 57192  97.5061 256.2894 0011497  26.9592 333.2242 15.26402165168090
SITRO-AIS 8 (ANOKHIN)   
1 57193U 23091AD  26193.16089054  .00008407  00000+0  26751-3 0  9996
2 57193  97.5051 258.9975 0009841  18.9821 341.1786 15.32805109168278
SITRO-AIS 7 (FARTUSHNIY)
1 57194U 23091AE  26193.16858484  .00005514  00000+0  21650-3 0  9997
2 57194  97.5057 256.1095 0011456  28.1035 332.0820 15.26077550168084
